[{"OBJECT_NAME":"STARLINK-34461","OBJECT_ID":"2025-129G","EPOCH":"2026-01-05T08:09:08.832384","MEAN_MOTION":14.98333284,"ECCENTRICITY":0.00022968,"INCLINATION":69.9999,"RA_OF_ASC_NODE":234.361,"ARG_OF_PERICENTER":269.0859,"MEAN_ANOMALY":91.0037,"EPHEMERIS_TYPE":0,"CLASSIFICATION_TYPE":"U","NORAD_CAT_ID":64418,"ELEMENT_SET_NO":999,"REV_AT_EPOCH":3179,"BSTAR":0.00021706704,"MEAN_MOTION_DOT":2.498e-5,"MEAN_MOTION_DDOT":0},{"OBJECT_NAME":"STARLINK-34512","OBJECT_ID":"2025-129H","EPOCH":"2026-01-05T07:50:52.704960","MEAN_MOTION":14.98337929,"ECCENTRICITY":0.00020146,"INCLINATION":70.0004,"RA_OF_ASC_NODE":234.3143,"ARG_OF_PERICENTER":272.988,"MEAN_ANOMALY":87.1049,"EPHEMERIS_TYPE":0,"CLASSIFICATION_TYPE":"U","NORAD_CAT_ID":64419,"ELEMENT_SET_NO":999,"REV_AT_EPOCH":3173,"BSTAR":0.00027123435,"MEAN_MOTION_DOT":3.145e-5,"MEAN_MOTION_DDOT":0},{"OBJECT_NAME":"STARLINK-34503","OBJECT_ID":"2025-129J","EPOCH":"2026-01-05T07:57:07.476192","MEAN_MOTION":14.98337342,"ECCENTRICITY":0.00026618,"INCLINATION":70,"RA_OF_ASC_NODE":234.3315,"ARG_OF_PERICENTER":272.8725,"MEAN_ANOMALY":87.213,"EPHEMERIS_TYPE":0,"CLASSIFICATION_TYPE":"U","NORAD_CAT_ID":64420,"ELEMENT_SET_NO":999,"REV_AT_EPOCH":3173,"BSTAR":0.00027608355,"MEAN_MOTION_DOT":3.203e-5,"MEAN_MOTION_DDOT":0},{"OBJECT_NAME":"STARLINK-34498","OBJECT_ID":"2025-129K","EPOCH":"2026-01-05T15:39:30.884256","MEAN_MOTION":14.98581336,"ECCENTRICITY":0.00063168,"INCLINATION":69.999,"RA_OF_ASC_NODE":233.4512,"ARG_OF_PERICENTER":290.4412,"MEAN_ANOMALY":69.6069,"EPHEMERIS_TYPE":0,"CLASSIFICATION_TYPE":"U","NORAD_CAT_ID":64421,"ELEMENT_SET_NO":999,"REV_AT_EPOCH":3184,"BSTAR":0.014842042,"MEAN_MOTION_DOT":0.00182922,"MEAN_MOTION_DDOT":0},{"OBJECT_NAME":"STARLINK-34434","OBJECT_ID":"2025-129L","EPOCH":"2026-01-05T14:33:26.032320","MEAN_MOTION":14.98328784,"ECCENTRICITY":0.00027216,"INCLINATION":70.0003,"RA_OF_ASC_NODE":233.6917,"ARG_OF_PERICENTER":270.9728,"MEAN_ANOMALY":89.112,"EPHEMERIS_TYPE":0,"CLASSIFICATION_TYPE":"U","NORAD_CAT_ID":64422,"ELEMENT_SET_NO":999,"REV_AT_EPOCH":3183,"BSTAR":0.00024700646,"MEAN_MOTION_DOT":2.855e-5,"MEAN_MOTION_DDOT":0},{"OBJECT_NAME":"STARLINK-34467","OBJECT_ID":"2025-129M","EPOCH":"2026-01-05T15:21:30.143808","MEAN_MOTION":14.98329043,"ECCENTRICITY":0.00029299,"INCLINATION":69.9997,"RA_OF_ASC_NODE":233.4034,"ARG_OF_PERICENTER":268.7198,"MEAN_ANOMALY":91.3625,"EPHEMERIS_TYPE":0,"CLASSIFICATION_TYPE":"U","NORAD_CAT_ID":64423,"ELEMENT_SET_NO":999,"REV_AT_EPOCH":3184,"BSTAR":0.00054181963,"MEAN_MOTION_DOT":6.378e-5,"MEAN_MOTION_DDOT":0},{"OBJECT_NAME":"STARLINK-34468","OBJECT_ID":"2025-129N","EPOCH":"2026-01-05T08:15:09.605952","MEAN_MOTION":14.9833626,"ECCENTRICITY":0.00021858,"INCLINATION":70.0005,"RA_OF_ASC_NODE":234.3741,"ARG_OF_PERICENTER":278.0062,"MEAN_ANOMALY":82.0849,"EPHEMERIS_TYPE":0,"CLASSIFICATION_TYPE":"U","NORAD_CAT_ID":64424,"ELEMENT_SET_NO":999,"REV_AT_EPOCH":3179,"BSTAR":0.00041967694,"MEAN_MOTION_DOT":4.919e-5,"MEAN_MOTION_DDOT":0},{"OBJECT_NAME":"STARLINK-34452","OBJECT_ID":"2025-129P","EPOCH":"2026-01-05T15:03:29.991744","MEAN_MOTION":14.98780247,"ECCENTRICITY":0.00104449,"INCLINATION":70.0018,"RA_OF_ASC_NODE":233.3588,"ARG_OF_PERICENTER":274.0849,"MEAN_ANOMALY":85.9116,"EPHEMERIS_TYPE":0,"CLASSIFICATION_TYPE":"U","NORAD_CAT_ID":64425,"ELEMENT_SET_NO":999,"REV_AT_EPOCH":3184,"BSTAR":0.018865013,"MEAN_MOTION_DOT":0.00235621,"MEAN_MOTION_DDOT":0},{"OBJECT_NAME":"STARLINK-34432","OBJECT_ID":"2025-129Q","EPOCH":"2026-01-05T15:27:30.338496","MEAN_MOTION":14.98314042,"ECCENTRICITY":0.00031748,"INCLINATION":70,"RA_OF_ASC_NODE":233.4133,"ARG_OF_PERICENTER":276.488,"MEAN_ANOMALY":83.5917,"EPHEMERIS_TYPE":0,"CLASSIFICATION_TYPE":"U","NORAD_CAT_ID":64426,"ELEMENT_SET_NO":999,"REV_AT_EPOCH":3178,"BSTAR":0.00086804931,"MEAN_MOTION_DOT":0.00010275,"MEAN_MOTION_DDOT":0},{"OBJECT_NAME":"STARLINK-34480","OBJECT_ID":"2025-129R","EPOCH":"2026-01-05T08:38:56.560704","MEAN_MOTION":14.98311615,"ECCENTRICITY":0.00022224,"INCLINATION":70.0006,"RA_OF_ASC_NODE":234.0274,"ARG_OF_PERICENTER":274.2261,"MEAN_ANOMALY":85.8644,"EPHEMERIS_TYPE":0,"CLASSIFICATION_TYPE":"U","NORAD_CAT_ID":64427,"ELEMENT_SET_NO":999,"REV_AT_EPOCH":3180,"BSTAR":-0.00019729385,"MEAN_MOTION_DOT":-2.445e-5,"MEAN_MOTION_DDOT":0},{"OBJECT_NAME":"STARLINK-34495","OBJECT_ID":"2025-129S","EPOCH":"2026-01-05T15:15:29.637216","MEAN_MOTION":14.98330448,"ECCENTRICITY":0.00024823,"INCLINATION":70.0001,"RA_OF_ASC_NODE":233.3913,"ARG_OF_PERICENTER":273.4771,"MEAN_ANOMALY":86.6104,"EPHEMERIS_TYPE":0,"CLASSIFICATION_TYPE":"U","NORAD_CAT_ID":64428,"ELEMENT_SET_NO":999,"REV_AT_EPOCH":3184,"BSTAR":0.00062811397,"MEAN_MOTION_DOT":7.409e-5,"MEAN_MOTION_DDOT":0},{"OBJECT_NAME":"STARLINK-34501","OBJECT_ID":"2025-129T","EPOCH":"2026-01-05T07:56:53.356704","MEAN_MOTION":14.98336557,"ECCENTRICITY":0.00026635,"INCLINATION":70.0002,"RA_OF_ASC_NODE":234.3353,"ARG_OF_PERICENTER":270.6846,"MEAN_ANOMALY":89.4008,"EPHEMERIS_TYPE":0,"CLASSIFICATION_TYPE":"U","NORAD_CAT_ID":64429,"ELEMENT_SET_NO":999,"REV_AT_EPOCH":3179,"BSTAR":0.00010952201,"MEAN_MOTION_DOT":1.214e-5,"MEAN_MOTION_DDOT":0},{"OBJECT_NAME":"STARLINK-34441","OBJECT_ID":"2025-129U","EPOCH":"2026-01-05T15:33:30.032928","MEAN_MOTION":14.98353402,"ECCENTRICITY":0.00014299,"INCLINATION":70.0038,"RA_OF_ASC_NODE":233.4352,"ARG_OF_PERICENTER":265.9937,"MEAN_ANOMALY":94.1059,"EPHEMERIS_TYPE":0,"CLASSIFICATION_TYPE":"U","NORAD_CAT_ID":64430,"ELEMENT_SET_NO":999,"REV_AT_EPOCH":3184,"BSTAR":0.00052082383,"MEAN_MOTION_DOT":6.13e-5,"MEAN_MOTION_DDOT":0},{"OBJECT_NAME":"STARLINK-34524","OBJECT_ID":"2025-129V","EPOCH":"2026-01-05T15:09:28.398816","MEAN_MOTION":14.98336016,"ECCENTRICITY":0.00026663,"INCLINATION":69.9997,"RA_OF_ASC_NODE":233.373,"ARG_OF_PERICENTER":268.1925,"MEAN_ANOMALY":91.8929,"EPHEMERIS_TYPE":0,"CLASSIFICATION_TYPE":"U","NORAD_CAT_ID":64431,"ELEMENT_SET_NO":999,"REV_AT_EPOCH":3178,"BSTAR":0.00041622673,"MEAN_MOTION_DOT":4.878e-5,"MEAN_MOTION_DDOT":0},{"OBJECT_NAME":"STARLINK-34506","OBJECT_ID":"2025-129W","EPOCH":"2026-01-05T08:20:53.627424","MEAN_MOTION":14.98333216,"ECCENTRICITY":0.00024498,"INCLINATION":70.0001,"RA_OF_ASC_NODE":233.988,"ARG_OF_PERICENTER":265.5858,"MEAN_ANOMALY":94.5021,"EPHEMERIS_TYPE":0,"CLASSIFICATION_TYPE":"U","NORAD_CAT_ID":64432,"ELEMENT_SET_NO":999,"REV_AT_EPOCH":3174,"BSTAR":0.00054825431,"MEAN_MOTION_DOT":6.455e-5,"MEAN_MOTION_DDOT":0},{"OBJECT_NAME":"STARLINK-34451","OBJECT_ID":"2025-129X","EPOCH":"2026-01-05T16:00:01.999584","MEAN_MOTION":14.98320982,"ECCENTRICITY":0.00026708,"INCLINATION":69.9993,"RA_OF_ASC_NODE":233.5088,"ARG_OF_PERICENTER":268.0927,"MEAN_ANOMALY":77.9468,"EPHEMERIS_TYPE":0,"CLASSIFICATION_TYPE":"U","NORAD_CAT_ID":64433,"ELEMENT_SET_NO":999,"REV_AT_EPOCH":572,"BSTAR":-0.00062554751,"MEAN_MOTION_DOT":-7.547e-5,"MEAN_MOTION_DDOT":0},{"OBJECT_NAME":"STARLINK-34472","OBJECT_ID":"2025-129Y","EPOCH":"2026-01-05T01:14:23.262432","MEAN_MOTION":14.9846869,"ECCENTRICITY":0.00048546,"INCLINATION":70.002,"RA_OF_ASC_NODE":234.9629,"ARG_OF_PERICENTER":259.0954,"MEAN_ANOMALY":100.9659,"EPHEMERIS_TYPE":0,"CLASSIFICATION_TYPE":"U","NORAD_CAT_ID":64434,"ELEMENT_SET_NO":999,"REV_AT_EPOCH":3175,"BSTAR":-0.00076559412,"MEAN_MOTION_DOT":-9.25e-5,"MEAN_MOTION_DDOT":0},{"OBJECT_NAME":"STARLINK-34478","OBJECT_ID":"2025-129Z","EPOCH":"2026-01-05T15:15:42.622272","MEAN_MOTION":14.98349609,"ECCENTRICITY":0.00038826,"INCLINATION":69.9993,"RA_OF_ASC_NODE":233.386,"ARG_OF_PERICENTER":267.0461,"MEAN_ANOMALY":93.0254,"EPHEMERIS_TYPE":0,"CLASSIFICATION_TYPE":"U","NORAD_CAT_ID":64435,"ELEMENT_SET_NO":999,"REV_AT_EPOCH":3178,"BSTAR":0.0008754264,"MEAN_MOTION_DOT":0.00010374,"MEAN_MOTION_DDOT":0},{"OBJECT_NAME":"STARLINK-34396","OBJECT_ID":"2025-129AA","EPOCH":"2026-01-05T07:51:06.844320","MEAN_MOTION":14.98333516,"ECCENTRICITY":0.00027547,"INCLINATION":70,"RA_OF_ASC_NODE":234.3088,"ARG_OF_PERICENTER":275.546,"MEAN_ANOMALY":84.5384,"EPHEMERIS_TYPE":0,"CLASSIFICATION_TYPE":"U","NORAD_CAT_ID":64436,"ELEMENT_SET_NO":999,"REV_AT_EPOCH":3173,"BSTAR":0.00016464972,"MEAN_MOTION_DOT":1.872e-5,"MEAN_MOTION_DDOT":0},{"OBJECT_NAME":"STARLINK-34507","OBJECT_ID":"2025-129AB","EPOCH":"2026-01-05T16:00:01.999584","MEAN_MOTION":14.98348552,"ECCENTRICITY":0.00025489,"INCLINATION":69.9995,"RA_OF_ASC_NODE":233.2327,"ARG_OF_PERICENTER":266.1957,"MEAN_ANOMALY":327.3362,"EPHEMERIS_TYPE":0,"CLASSIFICATION_TYPE":"U","NORAD_CAT_ID":64437,"ELEMENT_SET_NO":999,"REV_AT_EPOCH":577,"BSTAR":-0.00015087574,"MEAN_MOTION_DOT":-1.894e-5,"MEAN_MOTION_DDOT":0},{"OBJECT_NAME":"STARLINK-34465","OBJECT_ID":"2025-130A","EPOCH":"2026-01-05T08:02:15.339264","MEAN_MOTION":15.30220083,"ECCENTRICITY":0.000128,"INCLINATION":53.1586,"RA_OF_ASC_NODE":22.7832,"ARG_OF_PERICENTER":96.5367,"MEAN_ANOMALY":263.5779,"EPHEMERIS_TYPE":0,"CLASSIFICATION_TYPE":"U","NORAD_CAT_ID":64438,"ELEMENT_SET_NO":999,"REV_AT_EPOCH":3100,"BSTAR":0.0010517,"MEAN_MOTION_DOT":0.00030937,"MEAN_MOTION_DDOT":0},{"OBJECT_NAME":"STARLINK-34456","OBJECT_ID":"2025-130B","EPOCH":"2026-01-05T10:55:09.798528","MEAN_MOTION":15.30222405,"ECCENTRICITY":0.00012318,"INCLINATION":53.1593,"RA_OF_ASC_NODE":22.1114,"ARG_OF_PERICENTER":91.8685,"MEAN_ANOMALY":268.2457,"EPHEMERIS_TYPE":0,"CLASSIFICATION_TYPE":"U","NORAD_CAT_ID":64439,"ELEMENT_SET_NO":999,"REV_AT_EPOCH":3102,"BSTAR":0.0017622461,"MEAN_MOTION_DOT":0.00052237,"MEAN_MOTION_DDOT":0},{"OBJECT_NAME":"STARLINK-34410","OBJECT_ID":"2025-130C","EPOCH":"2026-01-05T07:33:22.893984","MEAN_MOTION":15.30217084,"ECCENTRICITY":0.0001204,"INCLINATION":53.1604,"RA_OF_ASC_NODE":22.6597,"ARG_OF_PERICENTER":84.4049,"MEAN_ANOMALY":275.7089,"EPHEMERIS_TYPE":0,"CLASSIFICATION_TYPE":"U","NORAD_CAT_ID":64440,"ELEMENT_SET_NO":999,"REV_AT_EPOCH":3100,"BSTAR":0.0011613,"MEAN_MOTION_DOT":0.00034213,"MEAN_MOTION_DDOT":0}]
